NORAD_CAT_ID,OBJECT_NAME,OBJECT_TYPE,EPOCH,MEAN_MOTION,ECCENTRICITY,INCLINATION,RA_OF_ASC_NODE,ARG_OF_PERICENTER,MEAN_ANOMALY,BSTAR,MEAN_MOTION_DOT,MEAN_MOTION_DDOT,TLE_LINE0,TLE_LINE1,TLE_LINE2,SEMIMAJOR_AXIS,PERIOD,APOGEE,PERIGEE,DECAYED
55787.0,STARLINK-5811,PAYLOAD,2024-03-02 14:20:08,14.9832942,0.0002897,69.9984,263.0572,267.3096,92.7732,-1.4328e-05,-2.64e-06,0.0,0 STARLINK-5811,1 55787U 23028AY  24062.59731967 -.00000264  00000-0 -14328-4 0  9994,2 55787  69.9984 263.0572 0002897 267.3096  92.7732 14.98329420 56613,6950.195,96.107,574.073,570.046,0.0
55787.0,STARLINK-5811,PAYLOAD,2024-03-02 22:20:48,14.9832932,0.0002902,69.9983,262.2153,267.9825,92.1002,-1.3694e-05,-2.56e-06,0.0,0 STARLINK-5811,1 55787U 23028AY  24062.93111979 -.00000256  00000-0 -13694-4 0  9993,2 55787  69.9983 262.2153 0002902 267.9825  92.1002 14.98329320 56669,6950.195,96.107,574.077,570.043,0.0
55787.0,STARLINK-5811,PAYLOAD,2024-03-02 23:56:56,14.98330435,0.0002965,69.998,262.046,267.8335,92.2484,-9.6272e-06,-2.08e-06,0.0,0 STARLINK-5811,1 55787U 23028AY  24062.99787872 -.00000208  00000-0 -96272-5 0  9991,2 55787  69.9980 262.0460 0002965 267.8335  92.2484 14.98330435 56663,6950.192,96.107,574.117,569.996,0.0
55787.0,STARLINK-5811,PAYLOAD,2024-03-03 14:22:09,14.98330567,0.0002948,69.9981,260.5302,270.9274,89.1548,1.5207e-05,8.8e-07,0.0,0 STARLINK-5811,1 55787U 23028AY  24063.59871779  .00000088  00000-0  15207-4 0  9990,2 55787  69.9981 260.5302 0002948 270.9274  89.1548 14.98330567 56763,6950.191,96.107,574.105,570.007,0.0
55787.0,STARLINK-5811,PAYLOAD,2024-03-03 20:46:41,14.98332201,0.0002949,69.9977,259.8571,270.1278,89.9543,2.0059e-05,1.46e-06,0.0,0 STARLINK-5811,1 55787U 23028AY  24063.86575642  .00000146  00000-0  20059-4 0  9996,2 55787  69.9977 259.8571 0002949 270.1278  89.9543 14.98332201 56809,6950.186,96.107,574.101,570.001,0.0
55787.0,STARLINK-5811,PAYLOAD,2024-03-03 22:22:51,14.98312691,0.0002685,69.998,259.6898,290.1309,69.9561,-0.00018112,-2.252e-05,0.0,0 STARLINK-5811,1 55787U 23028AY  24063.93253606 -.00002252  00000-0 -18112-3 0  9995,2 55787  69.9980 259.6898 0002685 290.1309  69.9561 14.98312691 56806,6950.246,96.108,573.978,570.245,0.0
55787.0,STARLINK-5811,PAYLOAD,2024-03-04 06:23:33,14.98283192,0.0003583,69.998,258.8481,270.4114,89.6634,-0.00048177,-5.83e-05,0.0,0 STARLINK-5811,1 55787U 23028AY  24064.26636444 -.00005830  00000-0 -48177-3 0  9996,2 55787  69.9980 258.8481 0003583 270.4114  89.6634 14.98283192 56856,6950.338,96.11,574.693,569.712,0.0
55787.0,STARLINK-5811,PAYLOAD,2024-03-04 14:24:13,14.98299887,0.0003104,69.9975,258.0059,273.9561,86.1243,-0.00026402,-3.239e-05,0.0,0 STARLINK-5811,1 55787U 23028AY  24064.60015785 -.00003239  00000-0 -26402-3 0  9991,2 55787  69.9975 258.0059 0003104 273.9561  86.1243 14.98299887 56919,6950.286,96.109,574.308,569.994,0.0
55787.0,STARLINK-5811,PAYLOAD,2024-03-04 20:48:43,14.98327586,0.0003105,69.9978,257.3326,269.278,90.8023,5.0951e-05,5.15e-06,0.0,0 STARLINK-5811,1 55787U 23028AY  24064.86717407  .00000515  00000-0  50951-4 0  9998,2 55787  69.9978 257.3326 0003105 269.2780  90.8023 14.98327586 56942,6950.2,96.107,574.223,569.907,0.0
55787.0,STARLINK-5811,PAYLOAD,2024-03-04 22:24:51,14.98328451,0.0003074,69.9979,257.1643,269.347,90.7337,6.2074e-05,6.48e-06,0.0,0 STARLINK-5811,1 55787U 23028AY  24064.93393366  .00000648  00000-0  62074-4 0  9996,2 55787  69.9979 257.1643 0003074 269.3470  90.7337 14.98328451 56966,6950.198,96.107,574.199,569.926,0.0
55787.0,STARLINK-5811,PAYLOAD,2024-03-05 14:26:12,14.98332587,0.000306,69.9979,255.4816,269.6416,90.4392,8.5541e-05,9.28e-06,0.0,0 STARLINK-5811,1 55787U 23028AY  24065.60153182  .00000928  00000-0  85541-4 0  9996,2 55787  69.9979 255.4816 0003060 269.6416  90.4392 14.98332587 57062,6950.185,96.107,574.177,569.923,0.0
55787.0,STARLINK-5811,PAYLOAD,2024-03-05 22:26:52,14.98333932,0.0002887,69.9983,254.6397,267.9829,92.0999,0.00012931,1.45e-05,0.0,0 STARLINK-5811,1 55787U 23028AY  24065.93532985  .00001450  00000-0  12931-3 0  9997,2 55787  69.9983 254.6397 0002887 267.9829  92.0999 14.98333932 57108,6950.181,96.107,574.052,570.039,0.0
55787.0,STARLINK-5811,PAYLOAD,2024-03-06 14:28:14,14.98276425,0.0002784,69.9984,252.9564,268.9165,91.1675,0.0012255,0.00014539,0.0,0 STARLINK-5811,1 55787U 23028AY  24066.60294159  .00014539  00000-0  12255-2 0  9990,2 55787  69.9984 252.9564 0002784 268.9165  91.1675 14.98276425 57212,6950.359,96.11,574.159,570.289,0.0
55787.0,STARLINK-5811,PAYLOAD,2024-03-06 22:28:52,14.98346874,0.0003028,69.9985,252.1146,269.8931,90.1881,0.00010351,1.143e-05,0.0,0 STARLINK-5811,1 55787U 23028AY  24066.93672305  .00001143  00000-0  10351-3 0  9992,2 55787  69.9985 252.1146 0003028 269.8931  90.1881 14.98346874 57252,6950.141,96.106,574.11,569.901,0.0
55787.0,STARLINK-5811,PAYLOAD,2024-03-07 14:30:13,14.98342436,0.0002938,69.9987,250.4312,270.2111,89.8712,-2.0229e-05,-3.34e-06,0.0,0 STARLINK-5811,1 55787U 23028AY  24067.60432293 -.00000334  00000-0 -20229-4 0  9996,2 55787  69.9987 250.4312 0002938 270.2111  89.8712 14.98342436 57365,6950.154,96.106,574.061,569.977,0.0
55787.0,STARLINK-5811,PAYLOAD,2024-03-08 11:19:57,14.98342226,0.0002798,69.9992,248.2435,268.964,91.1198,-7.2103e-05,-9.53e-06,0.0,0 STARLINK-5811,1 55787U 23028AY  24068.47219720 -.00000953  00000-0 -72103-4 0  9995,2 55787  69.9992 248.2435 0002798 268.9640  91.1198 14.98342226 57492,6950.155,96.106,573.965,570.075,0.0
55787.0,STARLINK-5811,PAYLOAD,2024-03-08 17:44:30,14.9834005,0.0002816,69.9992,247.57,269.8857,90.1979,-8.9481e-05,-1.161e-05,0.0,0 STARLINK-5811,1 55787U 23028AY  24068.73923695 -.00001161  00000-0 -89481-4 0  9996,2 55787  69.9992 247.5700 0002816 269.8857  90.1979 14.98340050 57523,6950.162,96.106,573.984,570.07,0.0
55787.0,STARLINK-5811,PAYLOAD,2024-03-09 11:21:58,14.98334922,0.0002734,69.9992,245.7182,266.2266,93.858,-3.3808e-05,-4.96e-06,0.0,0 STARLINK-5811,1 55787U 23028AY  24069.47359431 -.00000496  00000-0 -33808-4 0  9991,2 55787  69.9992 245.7182 0002734 266.2266  93.8580 14.98334922 57643,6950.178,96.107,573.943,570.142,0.0
55787.0,STARLINK-5811,PAYLOAD,2024-03-09 17:46:30,14.98334425,0.0002782,69.9994,245.0449,264.7854,95.2987,-3.2184e-05,-4.77e-06,0.0,0 STARLINK-5811,1 55787U 23028AY  24069.74063343 -.00000477  00000-0 -32184-4 0  9990,2 55787  69.9994 245.0449 0002782 264.7854  95.2987 14.98334425 57671,6950.179,96.107,573.978,570.111,0.0
55787.0,STARLINK-5811,PAYLOAD,2024-03-10 04:59:25,14.98345815,0.0004015,70.0004,243.865,270.1008,89.9691,0.00010687,1.183e-05,0.0,0 STARLINK-5811,1 55787U 23028AY  24070.20793908  .00001183  00000-0  10687-3 0  9996,2 55787  70.0004 243.8650 0004015 270.1008  89.9691 14.98345815 57744,6950.144,96.106,574.799,569.219,0.0
55787.0,STARLINK-5811,PAYLOAD,2024-03-10 21:00:48,14.98326918,0.0003043,69.9996,242.1831,269.5105,90.5705,-4.7238e-05,-6.57e-06,0.0,0 STARLINK-5811,1 55787U 23028AY  24070.87555753 -.00000657  00000-0 -47238-4 0  9993,2 55787  69.9996 242.1831 0003043 269.5105  90.5705 14.98326918 57842,6950.202,96.107,574.182,569.952,0.0
55787.0,STARLINK-5811,PAYLOAD,2024-03-11 11:26:00,14.98319833,0.0003611,69.9998,240.667,266.6331,93.4415,0.00022098,2.544e-05,0.0,0 STARLINK-5811,1 55787U 23028AY  24071.47639254  .00002544  00000-0  22098-3 0  9990,2 55787  69.9998 240.6670 0003611 266.6331  93.4415 14.98319833 57947,6950.224,96.108,574.599,569.58,0.0
55787.0,STARLINK-5811,PAYLOAD,2024-03-11 21:02:48,14.98336057,0.0003445,69.9998,239.6583,272.1997,87.8768,3.0524e-05,2.71e-06,0.0,0 STARLINK-5811,1 55787U 23028AY  24071.87694835  .00000271  00000-0  30524-4 0  9999,2 55787  69.9998 239.6583 0003445 272.1997  87.8768 14.98336057 57993,6950.174,96.107,574.433,569.645,0.0
55787.0,STARLINK-5811,PAYLOAD,2024-03-12 11:27:58,14.98358234,0.000372,70.0005,238.1425,271.1502,88.9231,0.00032927,3.841e-05,0.0,0 STARLINK-5811,1 55787U 23028AY  24072.47775652  .00003841  00000-0  32927-3 0  9997,2 55787  70.0005 238.1425 0003720 271.1502  88.9231 14.98358234 58080,6950.106,96.105,574.556,569.385,0.0
55787.0,STARLINK-5811,PAYLOAD,2024-03-13 11:30:02,14.9832454,0.0002307,69.9999,235.6191,269.605,90.4845,-0.00019289,-2.393e-05,0.0,0 STARLINK-5811,1 55787U 23028AY  24073.47919199 -.00002393  00000-0 -19289-3 0  9993,2 55787  69.9999 235.6191 0002307 269.6050  90.4845 14.98324540 58230,6950.21,96.107,573.678,570.471,0.0
55787.0,STARLINK-5811,PAYLOAD,2024-03-14 11:32:02,14.98324922,0.0003101,69.9992,233.0932,274.3842,85.6963,-7.6203e-05,-1.002e-05,0.0,0 STARLINK-5811,1 55787U 23028AY  24074.48059012 -.00001002  00000-0 -76203-4 0  9990,2 55787  69.9992 233.0932 0003101 274.3842  85.6963 14.98324922 58380,6950.209,96.107,574.229,569.918,0.0
55787.0,STARLINK-5811,PAYLOAD,2024-03-14 21:08:51,14.98317073,0.0002647,70.0019,232.0799,254.9968,105.0898,9.2933e-05,1.016e-05,0.0,0 STARLINK-5811,1 55787U 23028AY  24074.88114785  .00001016  00000-0  92933-4 0  9994,2 55787  70.0019 232.0799 0002647 254.9968 105.0898 14.98317073 58451,6950.233,96.108,573.938,570.258,0.0
55787.0,STARLINK-5811,PAYLOAD,2024-03-15 11:34:03,14.9832485,0.0002831,70.001,230.568,253.8972,106.1876,7.6899e-05,8.25e-06,0.0,0 STARLINK-5811,1 55787U 23028AY  24075.48198695  .00000825  00000-0  76899-4 0  9993,2 55787  70.0010 230.5680 0002831 253.8972 106.1876 14.98324850 58530,6950.209,96.107,574.041,570.106,0.0
55787.0,STARLINK-5811,PAYLOAD,2024-03-15 21:10:52,14.9832447,0.0002859,70.001,229.5581,255.1597,104.9245,6.5472e-05,6.88e-06,0.0,0 STARLINK-5811,1 55787U 23028AY  24075.88254894  .00000688  00000-0  65472-4 0  9993,2 55787  70.0010 229.5581 0002859 255.1597 104.9245 14.98324470 58608,6950.21,96.107,574.062,570.088,0.0
55787.0,STARLINK-5811,PAYLOAD,2024-03-16 13:12:13,14.98315661,0.000271,70.0003,227.875,256.0162,104.0695,0.00016779,1.909e-05,0.0,0 STARLINK-5811,1 55787U 23028AY  24076.55015346  .00001909  00000-0  16779-3 0  9997,2 55787  70.0003 227.8750 0002710 256.0162 104.0695 14.98315661 58694,6950.237,96.108,573.986,570.219,0.0
